[{"OBJECT_NAME":"STARLINK-34614","OBJECT_ID":"2025-161R","EPOCH":"2026-03-09T22:31:21.361152","MEAN_MOTION":15.30204259,"ECCENTRICITY":8.021e-5,"INCLINATION":53.1605,"RA_OF_ASC_NODE":293.3511,"ARG_OF_PERICENTER":104.9906,"MEAN_ANOMALY":255.1183,"EPHEMERIS_TYPE":0,"CLASSIFICATION_TYPE":"U","NORAD_CAT_ID":65030,"ELEMENT_SET_NO":999,"REV_AT_EPOCH":3536,"BSTAR":0.00074378752,"MEAN_MOTION_DOT":0.00021737,"MEAN_MOTION_DDOT":0},{"OBJECT_NAME":"COSMOS 2251 DEB","OBJECT_ID":"1993-036BN","EPOCH":"2026-03-09T17:54:27.582912","MEAN_MOTION":15.31852549,"ECCENTRICITY":0.0043021,"INCLINATION":74.0291,"RA_OF_ASC_NODE":318.0178,"ARG_OF_PERICENTER":323.0874,"MEAN_ANOMALY":36.7369,"EPHEMERIS_TYPE":0,"CLASSIFICATION_TYPE":"U","NORAD_CAT_ID":33821,"ELEMENT_SET_NO":999,"REV_AT_EPOCH":76330,"BSTAR":0.0011195846,"MEAN_MOTION_DOT":0.00035571,"MEAN_MOTION_DDOT":0}]
